start=new Date('2022-10-16T00:00:00.000Z').valueOf();
sats=[{"EPHEMERIS_TYPE":"0","SEMIMAJOR_AXIS":"6925.343","FILE":"3614916","RA_OF_ASC_NODE":"299.6005","MEAN_ANOMALY":"303.0870","APOAPSIS":"548.550","PERIOD":"95.592","ECCENTRICITY":"0.00019390","CLASSIFICATION_TYPE":"U","EPOCH":"2022-10-15T06:14:51.740448","SITE":"AFETR","MEAN_MOTION_DOT":"0.00000258","ARG_OF_PERICENTER":"57.0306","MEAN_ELEMENT_THEORY":"SGP4","INCLINATION":"53.0536","MEAN_MOTION":"15.06401961","GP_ID":"215204412","NORAD_CAT_ID":"46038","MEAN_MOTION_DDOT":"0.0000000000000","BSTAR":"0.00003621700000","ELEMENT_SET_NO":"999","OBJECT_ID":"2020-055M","OBJECT_NAME":"STARLINK-1567","TLE_LINE1":"1 46038U 20055M   22288.26032107  .00000258  00000-0  36217-4 0  9994","DECAY_DATE":null,"REV_AT_EPOCH":"12177","TLE_LINE2":"2 46038  53.0536 299.6005 0001939  57.0306 303.0870 15.06401961121771","REF_FRAME":"TEME","COUNTRY_CODE":"US","TIME_SYSTEM":"UTC","PERIAPSIS":"545.865","LAUNCH_DATE":"2020-08-07","OBJECT_TYPE":"PAYLOAD","RCS_SIZE":"LARGE","CENTER_NAME":"EARTH"},{"NORAD_CAT_ID":"46039","MEAN_MOTION_DDOT":"0.0000000000000","BSTAR":"-0.00001889800000","OBJECT_ID":"2020-055N","ELEMENT_SET_NO":"999","INCLINATION":"53.0542","MEAN_ELEMENT_THEORY":"SGP4","MEAN_MOTION":"15.06385820","GP_ID":"215203177","OBJECT_TYPE":"PAYLOAD","LAUNCH_DATE":"2020-08-07","CENTER_NAME":"EARTH","RCS_SIZE":"LARGE","DECAY_DATE":null,"REV_AT_EPOCH":"12180","REF_FRAME":"TEME","TLE_LINE2":"2 46039  53.0542 298.6727 0001948  42.4759 317.6380 15.06385820121805","OBJECT_NAME":"STARLINK-1569","TLE_LINE1":"1 46039U 20055N   22288.46674301 -.00000563  00000-0 -18898-4 0  9991","PERIAPSIS":"545.908","TIME_SYSTEM":"UTC","COUNTRY_CODE":"US","PERIOD":"95.593","CLASSIFICATION_TYPE":"U","ECCENTRICITY":"0.00019480","APOAPSIS":"548.606","EPHEMERIS_TYPE":"0","SEMIMAJOR_AXIS":"6925.392","RA_OF_ASC_NODE":"298.6727","MEAN_ANOMALY":"317.6380","FILE":"3614916","SITE":"AFETR","MEAN_MOTION_DOT":"-0.00000563","ARG_OF_PERICENTER":"42.4759","EPOCH":"2022-10-15T11:12:06.596064"},{"EPOCH":"2022-10-15T07:07:56.412480","SITE":"AFETR","ARG_OF_PERICENTER":"49.7954","MEAN_MOTION_DOT":"0.00001402","SEMIMAJOR_AXIS":"6925.353","EPHEMERIS_TYPE":"0","MEAN_ANOMALY":"310.3183","RA_OF_ASC_NODE":"299.4340","FILE":"3614916","CLASSIFICATION_TYPE":"U","PERIOD":"95.592","ECCENTRICITY":"0.00016910","APOAPSIS":"548.389","REF_FRAME":"TEME","TLE_LINE2":"2 46040  53.0539 299.4340 0001691  49.7954 310.3183 15.06398708121748","DECAY_DATE":null,"REV_AT_EPOCH":"12174","OBJECT_NAME":"STARLINK-1576","TLE_LINE1":"1 46040U 20055P   22288.29718070  .00001402  00000-0  11301-3 0  9998","PERIAPSIS":"546.046","TIME_SYSTEM":"UTC","COUNTRY_CODE":"US","OBJECT_TYPE":"PAYLOAD","LAUNCH_DATE":"2020-08-07","CENTER_NAME":"EARTH","RCS_SIZE":"LARGE","INCLINATION":"53.0539","MEAN_ELEMENT_THEORY":"SGP4","GP_ID":"215203427","MEAN_MOTION":"15.06398708","BSTAR":"0.00011301000000","MEAN_MOTION_DDOT":"0.0000000000000","NORAD_CAT_ID":"46040","OBJECT_ID":"2020-055P","ELEMENT_SET_NO":"999"},{"MEAN_MOTION":"15.06409454","GP_ID":"215204177","INCLINATION":"53.0559","MEAN_ELEMENT_THEORY":"SGP4","OBJECT_ID":"2020-055Q","ELEMENT_SET_NO":"999","NORAD_CAT_ID":"46041","BSTAR":"0.00019648000000","MEAN_MOTION_DDOT":"0.0000000000000","TIME_SYSTEM":"UTC","PERIAPSIS":"545.809","COUNTRY_CODE":"US","REV_AT_EPOCH":"12175","DECAY_DATE":null,"REF_FRAME":"TEME","TLE_LINE2":"2 46041  53.0559 299.4773 0001987  55.9775 304.1403 15.06409454121757","TLE_LINE1":"1 46041U 20055Q   22288.30824545  .00002647  00000-0  19648-3 0  9990","OBJECT_NAME":"STARLINK-1580","RCS_SIZE":"LARGE","CENTER_NAME":"EARTH","OBJECT_TYPE":"PAYLOAD","LAUNCH_DATE":"2020-08-07","RA_OF_ASC_NODE":"299.4773","MEAN_ANOMALY":"304.1403","FILE":"3614916","EPHEMERIS_TYPE":"0","SEMIMAJOR_AXIS":"6925.320","PERIOD":"95.592","ECCENTRICITY":"0.00019870","CLASSIFICATION_TYPE":"U","APOAPSIS":"548.561","EPOCH":"2022-10-15T07:23:52.406880","MEAN_MOTION_DOT":"0.00002647","ARG_OF_PERICENTER":"55.9775","SITE":"AFETR"},{"OBJECT_ID":"2020-055R","ELEMENT_SET_NO":"999","NORAD_CAT_ID":"46042","BSTAR":"0.00001353700000","MEAN_MOTION_DDOT":"0.0000000000000","MEAN_MOTION":"15.06397820","GP_ID":"215245362","INCLINATION":"53.0553","MEAN_ELEMENT_THEORY":"SGP4","RCS_SIZE":"LARGE","CENTER_NAME":"EARTH","OBJECT_TYPE":"PAYLOAD","LAUNCH_DATE":"2020-08-07","TIME_SYSTEM":"UTC","PERIAPSIS":"546.117","COUNTRY_CODE":"US","REV_AT_EPOCH":"12181","DECAY_DATE":null,"REF_FRAME":"TEME","TLE_LINE2":"2 46042  53.0553 297.4252 0001593  55.4438 304.6701 15.06397820121812","TLE_LINE1":"1 46042U 20055R   22288.74686430 -.00000080  00000-0  13537-4 0  9990","OBJECT_NAME":"STARLINK-1581","PERIOD":"95.592","CLASSIFICATION_TYPE":"U","ECCENTRICITY":"0.00015930","APOAPSIS":"548.323","RA_OF_ASC_NODE":"297.4252","MEAN_ANOMALY":"304.6701","FILE":"3615679","EPHEMERIS_TYPE":"0","SEMIMAJOR_AXIS":"6925.355","MEAN_MOTION_DOT":"-0.00000080","ARG_OF_PERICENTER":"55.4438","SITE":"AFETR","EPOCH":"2022-10-15T17:55:29.075520"},{"MEAN_MOTION_DDOT":"0.0000000000000","BSTAR":"0.00005002200000","NORAD_CAT_ID":"46043","ELEMENT_SET_NO":"999","OBJECT_ID":"2020-055S","MEAN_ELEMENT_THEORY":"SGP4","INCLINATION":"53.0537","GP_ID":"215202679","MEAN_MOTION":"15.06399722","LAUNCH_DATE":"2020-08-07","OBJECT_TYPE":"PAYLOAD","RCS_SIZE":"LARGE","CENTER_NAME":"EARTH","TLE_LINE1":"1 46043U 20055S   22288.47410547  .00000463  00000-0  50022-4 0  9999","OBJECT_NAME":"STARLINK-1582","REF_FRAME":"TEME","TLE_LINE2":"2 46043  53.0537 298.6526 0002026  45.7938 314.3218 15.06399722121804","DECAY_DATE":null,"REV_AT_EPOCH":"12180","COUNTRY_CODE":"US","PERIAPSIS":"545.811","TIME_SYSTEM":"UTC","APOAPSIS":"548.617","PERIOD":"95.592","CLASSIFICATION_TYPE":"U","ECCENTRICITY":"0.00020260","SEMIMAJOR_AXIS":"6925.349","EPHEMERIS_TYPE":"0","FILE":"3614916","MEAN_ANOMALY":"314.3218","RA_OF_ASC_NODE":"298.6526","SITE":"AFETR","ARG_OF_PERICENTER":"45.7938","MEAN_MOTION_DOT":"0.00000463","EPOCH":"2022-10-15T11:22:42.712608"},{"EPHEMERIS_TYPE":"0","SEMIMAJOR_AXIS":"6925.318","FILE":"3615679","RA_OF_ASC_NODE":"297.3961","MEAN_ANOMALY":"301.6490","APOAPSIS":"548.262","CLASSIFICATION_TYPE":"U","PERIOD":"95.592","ECCENTRICITY":"0.00015580","EPOCH":"2022-10-15T18:04:44.117760","SITE":"AFETR","MEAN_MOTION_DOT":"0.00004305","ARG_OF_PERICENTER":"58.4650","MEAN_ELEMENT_THEORY":"SGP4","INCLINATION":"53.0534","MEAN_MOTION":"15.06409936","GP_ID":"215244362","NORAD_CAT_ID":"46044","BSTAR":"0.00030766000000","MEAN_MOTION_DDOT":"0.0000000000000","ELEMENT_SET_NO":"999","OBJECT_ID":"2020-055T","OBJECT_NAME":"STARLINK-1584","TLE_LINE1":"1 46044U 20055T   22288.75328840  .00004305  00000-0  30766-3 0  9996","REV_AT_EPOCH":"12185","DECAY_DATE":null,"REF_FRAME":"TEME","TLE_LINE2":"2 46044  53.0534 297.3961 0001558  58.4650 301.6490 15.06409936121857","COUNTRY_CODE":"US","TIME_SYSTEM":"UTC","PERIAPSIS":"546.104","LAUNCH_DATE":"2020-08-07","OBJECT_TYPE":"PAYLOAD","RCS_SIZE":"LARGE","CENTER_NAME":"EARTH"},{"PERIOD":"95.592","CLASSIFICATION_TYPE":"U","ECCENTRICITY":"0.00019890","APOAPSIS":"548.570","RA_OF_ASC_NODE":"298.5398","MEAN_ANOMALY":"305.5829","FILE":"3614916","EPHEMERIS_TYPE":"0","SEMIMAJOR_AXIS":"6925.328","MEAN_MOTION_DOT":"0.00000624","ARG_OF_PERICENTER":"54.5346","SITE":"AFETR","EPOCH":"2022-10-15T11:59:51.772128","OBJECT_ID":"2020-055U","ELEMENT_SET_NO":"999","NORAD_CAT_ID":"46045","MEAN_MOTION_DDOT":"0.0000000000000","BSTAR":"0.00006079100000","MEAN_MOTION":"15.06406834","GP_ID":"215203678","INCLINATION":"53.0546","MEAN_ELEMENT_THEORY":"SGP4","CENTER_NAME":"EARTH","RCS_SIZE":"LARGE","OBJECT_TYPE":"PAYLOAD","LAUNCH_DATE":"2020-08-07","TIME_SYSTEM":"UTC","PERIAPSIS":"545.815","COUNTRY_CODE":"US","REV_AT_EPOCH":"12179","DECAY_DATE":null,"TLE_LINE2":"2 46045  53.0546 298.5398 0001989  54.5346 305.5829 15.06406834121791","REF_FRAME":"TEME","TLE_LINE1":"1 46045U 20055U   22288.49990477  .00000624  00000-0  60791-4 0  9991","OBJECT_NAME":"STARLINK-1591"},{"GP_ID":"215244863","MEAN_MOTION":"15.06403846","INCLINATION":"53.0537","MEAN_ELEMENT_THEORY":"SGP4","OBJECT_ID":"2020-055W","ELEMENT_SET_NO":"999","MEAN_MOTION_DDOT":"0.0000000000000","BSTAR":"0.00006969700000","NORAD_CAT_ID":"46047","PERIAPSIS":"546.146","TIME_SYSTEM":"UTC","COUNTRY_CODE":"US","REF_FRAME":"TEME","TLE_LINE2":"2 46047  53.0537 287.5430 0001524  61.5250 298.5892 15.06403846121987","DECAY_DATE":null,"REV_AT_EPOCH":"12198","OBJECT_NAME":"STARLINK-1524","TLE_LINE1":"1 46047U 20055W   22288.71829639  .00000757  00000-0  69697-4 0  9990","CENTER_NAME":"EARTH","RCS_SIZE":"LARGE","OBJECT_TYPE":"PAYLOAD","LAUNCH_DATE":"2020-08-07","MEAN_ANOMALY":"298.5892","RA_OF_ASC_NODE":"287.5430","FILE":"3615679","SEMIMAJOR_AXIS":"6925.337","EPHEMERIS_TYPE":"0","PERIOD":"95.592","CLASSIFICATION_TYPE":"U","ECCENTRICITY":"0.00015240","APOAPSIS":"548.257","EPOCH":"2022-10-15T17:14:20.808096","ARG_OF_PERICENTER":"61.5250","MEAN_MOTION_DOT":"0.00000757","SITE":"AFETR"},{"SITE":"AFETR","ARG_OF_PERICENTER":"49.0381","MEAN_MOTION_DOT":"0.00000891","EPOCH":"2022-10-15T09:11:20.798304","PERIOD":"95.592","CLASSIFICATION_TYPE":"U","ECCENTRICITY":"0.00017370","APOAPSIS":"548.415","SEMIMAJOR_AXIS":"6925.347","EPHEMERIS_TYPE":"0","MEAN_ANOMALY":"311.0758","RA_OF_ASC_NODE":"289.0687","FILE":"3614916","OBJECT_TYPE":"PAYLOAD","LAUNCH_DATE":"2020-08-07","RCS_SIZE":"LARGE","CENTER_NAME":"EARTH","REF_FRAME":"TEME","TLE_LINE2":"2 46048  53.0537 289.0687 0001737  49.0381 311.0758 15.06400547121911","REV_AT_EPOCH":"12191","DECAY_DATE":null,"TLE_LINE1":"1 46048U 20055X   22288.38287961  .00000891  00000-0  78686-4 0  9997","OBJECT_NAME":"STARLINK-1527","PERIAPSIS":"546.009","TIME_SYSTEM":"UTC","COUNTRY_CODE":"US","MEAN_MOTION_DDOT":"0.0000000000000","BSTAR":"0.00007868600000","NORAD_CAT_ID":"46048","OBJECT_ID":"2020-055X","ELEMENT_SET_NO":"999","INCLINATION":"53.0537","MEAN_ELEMENT_THEORY":"SGP4","GP_ID":"215203178","MEAN_MOTION":"15.06400547"}];
